NORAD_CAT_ID,OBJECT_NAME,OBJECT_TYPE,EPOCH,MEAN_MOTION,ECCENTRICITY,INCLINATION,RA_OF_ASC_NODE,ARG_OF_PERICENTER,MEAN_ANOMALY,BSTAR,MEAN_MOTION_DOT,MEAN_MOTION_DDOT,TLE_LINE0,TLE_LINE1,TLE_LINE2,SEMIMAJOR_AXIS,PERIOD,APOGEE,PERIGEE,DECAYED
54806.0,STARLINK-5412,PAYLOAD,2023-11-16 23:29:42,15.08840632,0.0001613,53.2168,216.2758,94.7044,265.4132,0.00013922,1.928e-05,0.0,0 STARLINK-5412,1 54806U 22175BA  23320.97896913  .00001928  00000-0  13922-3 0  9992,2 54806  53.2168 216.2758 0001613  94.7044 265.4132 15.08840632 50601,6917.878,95.438,540.859,538.628,0.0
54806.0,STARLINK-5412,PAYLOAD,2023-11-17 10:37:25,15.08839427,0.0001679,53.2166,214.1942,97.9493,262.169,0.00023916,3.52e-05,0.0,0 STARLINK-5412,1 54806U 22175BA  23321.44265113  .00003520  00000-0  23916-3 0  9991,2 54806  53.2166 214.1942 0001679  97.9493 262.1690 15.08839427 52836,6917.882,95.438,540.909,538.586,0.0
54806.0,STARLINK-5412,PAYLOAD,2023-11-17 23:20:29,15.08845245,0.0001635,53.2172,211.8154,96.7249,263.3929,0.00019835,2.871e-05,0.0,0 STARLINK-5412,1 54806U 22175BA  23321.97256763  .00002871  00000-0  19835-3 0  9993,2 54806  53.2172 211.8154 0001635  96.7249 263.3929 15.08845245 52912,6917.864,95.437,540.86,538.598,0.0
54806.0,STARLINK-5412,PAYLOAD,2023-11-18 02:31:16,15.08846079,0.0001616,53.217,211.2214,93.8435,266.2742,0.00017201,2.451e-05,0.0,0 STARLINK-5412,1 54806U 22175BA  23322.10504677  .00002451  00000-0  17201-3 0  9998,2 54806  53.2170 211.2214 0001616  93.8435 266.2742 15.08846079 50778,6917.862,95.437,540.845,538.609,0.0
54806.0,STARLINK-5412,PAYLOAD,2023-11-18 23:11:16,15.08841085,0.0001549,53.215,207.3563,89.8109,270.306,8.3972e-05,1.049e-05,0.0,0 STARLINK-5412,1 54806U 22175BA  23322.96616850  .00001049  00000-0  83972-4 0  9990,2 54806  53.2150 207.3563 0001549  89.8109 270.3060 15.08841085 53063,6917.877,95.437,540.814,538.67,0.0
54806.0,STARLINK-5412,PAYLOAD,2023-11-19 02:22:03,15.08840983,0.0001543,53.2162,206.7611,90.7957,269.3212,7.4054e-05,8.91e-06,0.0,0 STARLINK-5412,1 54806U 22175BA  23323.09864837  .00000891  00000-0  74054-4 0  9990,2 54806  53.2162 206.7611 0001543  90.7957 269.3212 15.08840983 50924,6917.877,95.437,540.81,538.675,0.0
54806.0,STARLINK-5412,PAYLOAD,2023-11-19 23:02:03,15.08846824,0.0001434,53.216,202.8954,91.0939,269.0218,0.00010211,1.338e-05,0.0,0 STARLINK-5412,1 54806U 22175BA  23323.95976346  .00001338  00000-0  10211-3 0  9995,2 54806  53.2160 202.8954 0001434  91.0939 269.0218 15.08846824 53210,6917.86,95.437,540.717,538.733,0.0
54806.0,STARLINK-5412,PAYLOAD,2023-11-20 02:12:49,15.08851852,0.0001407,53.2164,202.3003,90.8998,269.2155,9.7613e-05,1.266e-05,0.0,0 STARLINK-5412,1 54806U 22175BA  23324.09224003  .00001266  00000-0  97613-4 0  9999,2 54806  53.2164 202.3003 0001407  90.8998 269.2155 15.08851852 51077,6917.844,95.437,540.683,538.736,0.0
54806.0,STARLINK-5412,PAYLOAD,2023-11-20 08:34:22,15.08840496,0.0001804,53.218,201.1101,79.7025,280.417,7.4936e-05,9.05e-06,0.0,0 STARLINK-5412,1 54806U 22175BA  23324.35720938  .00000905  00000-0  74936-4 0  9998,2 54806  53.2180 201.1101 0001804  79.7025 280.4170 15.08840496 51118,6917.879,95.438,540.992,538.496,0.0
54806.0,STARLINK-5412,PAYLOAD,2023-11-20 22:52:51,15.0883848,0.0001445,53.2169,198.4373,91.9279,268.1878,3.8728e-05,3.28e-06,0.0,0 STARLINK-5412,1 54806U 22175BA  23324.95337047  .00000328  00000-0  38728-4 0  9997,2 54806  53.2169 198.4373 0001445  91.9279 268.1878 15.08838480 53369,6917.885,95.438,540.75,538.75,0.0
54806.0,STARLINK-5412,PAYLOAD,2023-11-21 08:25:10,15.08836406,0.0001374,53.2162,196.652,87.1383,272.9766,1.2573e-05,-8.8e-07,0.0,0 STARLINK-5412,1 54806U 22175BA  23325.35081308 -.00000088  00000-0  12573-4 0  9992,2 54806  53.2162 196.6520 0001374  87.1383 272.9766 15.08836406 51262,6917.891,95.438,540.707,538.806,0.0
54806.0,STARLINK-5412,PAYLOAD,2023-11-21 14:46:42,15.08835429,0.0001369,53.2157,195.4626,94.3114,265.8034,4.5014e-05,4.28e-06,0.0,0 STARLINK-5412,1 54806U 22175BA  23325.61577421  .00000428  00000-0  45014-4 0  9990,2 54806  53.2157 195.4626 0001369  94.3114 265.8034 15.08835429 53463,6917.894,95.438,540.706,538.812,0.0
54806.0,STARLINK-5412,PAYLOAD,2023-11-21 21:08:15,15.08844631,0.0001323,53.2158,194.2733,90.8531,269.2613,4.0329e-05,3.54e-06,0.0,0 STARLINK-5412,1 54806U 22175BA  23325.88072971  .00000354  00000-0  40329-4 0  9991,2 54806  53.2158 194.2733 0001323  90.8531 269.2613 15.08844631 53505,6917.866,95.437,540.646,538.816,0.0
54806.0,STARLINK-5412,PAYLOAD,2023-11-22 00:19:01,15.08845062,0.000138,53.2151,193.6786,88.5369,271.5781,7.6198e-05,9.25e-06,0.0,0 STARLINK-5412,1 54806U 22175BA  23326.01320706  .00000925  00000-0  76198-4 0  9996,2 54806  53.2151 193.6786 0001380  88.5369 271.5781 15.08845062 51368,6917.865,95.437,540.685,538.775,0.0
54806.0,STARLINK-5412,PAYLOAD,2023-11-22 20:59:01,15.08848739,0.0001418,53.2151,189.8128,86.3567,273.7587,0.00023782,3.5e-05,0.0,0 STARLINK-5412,1 54806U 22175BA  23326.87432615  .00003500  00000-0  23782-3 0  9995,2 54806  53.2151 189.8128 0001418  86.3567 273.7587 15.08848739 53659,6917.854,95.437,540.7,538.738,0.0
54806.0,STARLINK-5412,PAYLOAD,2023-11-23 00:09:47,15.08856159,0.000143,53.215,189.2179,88.6421,271.4735,0.00032054,4.819e-05,0.0,0 STARLINK-5412,1 54806U 22175BA  23327.00680232  .00004819  00000-0  32054-3 0  9997,2 54806  53.2150 189.2179 0001430  88.6421 271.4735 15.08856159 53673,6917.831,95.437,540.685,538.707,0.0
54806.0,STARLINK-5412,PAYLOAD,2023-11-23 19:14:26,15.0883363,0.0001928,53.214,185.6452,148.2364,211.8745,5.201e-05,5.4e-06,0.0,0 STARLINK-5412,1 54806U 22175BA  23327.80169113  .00000540  00000-0  52010-4 0  9997,2 54806  53.2140 185.6452 0001928 148.2364 211.8745 15.08833630 51639,6917.9,95.438,541.099,538.431,0.0
54806.0,STARLINK-5412,PAYLOAD,2023-11-23 22:25:12,15.0883507,0.0001452,53.2149,185.0544,91.827,268.2889,-4.589e-06,-3.61e-06,0.0,0 STARLINK-5412,1 54806U 22175BA  23327.93417444 -.00000361  00000-0 -45890-5 0  9996,2 54806  53.2149 185.0544 0001452  91.8270 268.2889 15.08835070 53812,6917.895,95.438,540.765,538.756,0.0
54806.0,STARLINK-5412,PAYLOAD,2023-11-24 00:00:35,15.08833583,0.0001474,53.2148,184.7572,88.7239,271.3922,-3.3891e-06,-3.42e-06,0.0,0 STARLINK-5412,1 54806U 22175BA  23328.00041500 -.00000342  00000-0 -33891-5 0  9998,2 54806  53.2148 184.7572 0001474  88.7239 271.3922 15.08833583 53823,6917.9,95.438,540.785,538.745,0.0
54806.0,STARLINK-5412,PAYLOAD,2023-11-24 20:40:36,15.08842016,0.0001479,53.2151,180.8915,82.0827,278.0333,0.00033734,5.085e-05,0.0,0 STARLINK-5412,1 54806U 22175BA  23328.86153792  .00005085  00000-0  33734-3 0  9990,2 54806  53.2151 180.8915 0001479  82.0827 278.0333 15.08842016 53955,6917.874,95.437,540.762,538.716,0.0
54806.0,STARLINK-5412,PAYLOAD,2023-11-24 23:51:23,15.0884611,0.0001469,53.2153,180.2954,87.6539,272.4622,0.00044534,6.808e-05,0.0,0 STARLINK-5412,1 54806U 22175BA  23328.99401675  .00006808  00000-0  44534-3 0  9994,2 54806  53.2153 180.2954 0001469  87.6539 272.4622 15.08846110 51815,6917.862,95.437,540.743,538.71,0.0
54806.0,STARLINK-5412,PAYLOAD,2023-11-25 09:23:41,15.08841347,0.0001937,53.214,178.5103,134.8675,225.2474,0.00053887,8.299e-05,0.0,0 STARLINK-5412,1 54806U 22175BA  23329.39145622  .00008299  00000-0  53887-3 0  9993,2 54806  53.2140 178.5103 0001937 134.8675 225.2474 15.08841347 54038,6917.876,95.437,541.081,538.401,0.0
54806.0,STARLINK-5412,PAYLOAD,2023-11-25 20:31:23,15.08855806,0.0001445,53.2138,176.4333,84.1183,275.9974,0.00057314,8.849e-05,0.0,0 STARLINK-5412,1 54806U 22175BA  23329.85513529  .00008849  00000-0  57314-3 0  9999,2 54806  53.2138 176.4333 0001445  84.1183 275.9974 15.08855806 54102,6917.832,95.437,540.697,538.697,0.0
54806.0,STARLINK-5412,PAYLOAD,2023-11-26 14:00:38,15.08847988,0.0001611,53.2145,173.1664,87.5715,272.5462,0.00022523,3.299e-05,0.0,0 STARLINK-5412,1 54806U 22175BA  23330.58377474  .00003299  00000-0  22523-3 0  9996,2 54806  53.2145 173.1664 0001611  87.5715 272.5462 15.08847988 54213,6917.856,95.437,540.835,538.607,0.0
54806.0,STARLINK-5412,PAYLOAD,2023-11-26 17:11:24,15.08845529,0.0001472,53.2146,172.5618,110.7767,249.3383,0.00011323,1.515e-05,0.0,0 STARLINK-5412,1 54806U 22175BA  23330.71625316  .00001515  00000-0  11323-3 0  9997,2 54806  53.2146 172.5618 0001472 110.7767 249.3383 15.08845529 52072,6917.863,95.437,540.747,538.71,0.0
54806.0,STARLINK-5412,PAYLOAD,2023-11-26 20:22:10,15.08842098,0.0001445,53.2148,171.9688,94.304,265.8117,3.2135e-05,2.24e-06,0.0,0 STARLINK-5412,1 54806U 22175BA  23330.84873450  .00000224  00000-0  32135-4 0  9996,2 54806  53.2148 171.9688 0001445  94.3040 265.8117 15.08842098 54253,6917.874,95.437,540.739,538.739,0.0
54806.0,STARLINK-5412,PAYLOAD,2023-11-27 13:51:25,15.08833905,0.0001564,53.214,168.6992,111.3891,248.7268,-1.9088e-05,-5.92e-06,0.0,0 STARLINK-5412,1 54806U 22175BA  23331.57737938 -.00000592  00000-0 -19088-4 0  9999,2 54806  53.2140 168.6992 0001564 111.3891 248.7268 15.08833905 54368,6917.899,95.438,540.846,538.682,0.0
54806.0,STARLINK-5412,PAYLOAD,2023-11-27 18:37:35,15.08816509,0.0001418,53.2148,167.8058,100.9735,259.1417,0.00042565,6.488e-05,0.0,0 STARLINK-5412,1 54806U 22175BA  23331.77611026  .00006488  00000-0  42565-3 0  9993,2 54806  53.2148 167.8058 0001418 100.9735 259.1417 15.08816509 52236,6917.952,95.439,540.798,538.836,0.0
54806.0,STARLINK-5412,PAYLOAD,2023-11-28 13:42:12,15.08836774,0.0001442,53.2154,164.2375,110.4203,249.6944,8.6408e-05,1.087e-05,0.0,0 STARLINK-5412,1 54806U 22175BA  23332.57097932  .00001087  00000-0  86408-4 0  9991,2 54806  53.2154 164.2375 0001442 110.4203 249.6944 15.08836774 54517,6917.89,95.438,540.753,538.758,0.0
54806.0,STARLINK-5412,PAYLOAD,2023-11-28 20:03:44,15.08842088,0.000134,53.2162,163.0479,100.948,259.1662,0.00011766,1.585e-05,0.0,0 STARLINK-5412,1 54806U 22175BA  23332.83593623  .00001585  00000-0  11766-3 0  9995,2 54806  53.2162 163.0479 0001340 100.9480 259.1662 15.08842088 52398,6917.874,95.437,540.666,538.812,0.0
